spkid,full_name,pdes,class,first_obs,last_obs,n_obs_used,h,e,a,q,i,om,w,ma,ad,n,tp,dist,dist_min,dist_max,v_rel,v_inf,PHA_prediction
2164120,164120 (2003 YK),164120,APO,2001-10-13,2021-09-11,195,19.1,0.4081,1.512,0.895,11.03,345.63,189.63,205.91,2.13,0.53,2459891.21,0.155408605811494,0.155405892997644,0.15541131866311,12.9577806014801,12.9564573912643,1
2164121,164121 (2003 YT1),164121,APO,1982-11-19,2019-06-25,1104,16.21,0.292,1.11,0.786,44.06,38.32,91.05,111.94,1.43,0.8433,2459467.75,0.0400998712808507,0.0400964255052468,0.0401033173213682,23.4620577015804,23.4592254652226,1
2164184,164184 (2004 BF68),164184,APO,2004-01-27,2021-10-09,209,19.33,0.4537,1.627,0.889,4.6,202.21,2.56,212.08,2.36,0.475,2459911.92,0.199510113622811,0.1995080827035,0.199512144543834,15.6442977314018,15.6434440354579,1
2164202,164202 (2004 EW),164202,ATE,2004-03-13,2017-05-27,426,20.8,0.279,0.9879,0.712,4.67,342.91,56.19,156.1,1.26,1.004,2459444.98,0.13212327675458,0.132095693107855,0.132150862103373,11.7018388366298,11.7001153382006,1
2164206,164206 (2004 FN18),164206,APO,1954-10-05,2020-07-10,509,17.63,0.4094,1.701,1.004,18.27,214.42,232.87,87.04,2.4,0.4443,2459404.62,0.163201346141625,0.163192876308142,0.163209816174682,14.1176395388423,14.1164830423498,1
2164207,164207 (2004 GU9),164207,APO,2001-05-11,2021-10-25,260,21.15,0.136,1.001,0.865,13.65,38.49,279.69,159.62,1.14,0.9837,2459438.23,0.161308703300053,0.161306107589218,0.16131129905203,7.14750761224864,7.14519623860199,1
2164211,164211 (2004 JA27),164211,APO,2004-05-15,2021-04-10,468,19.4,0.4234,1.666,0.961,2.26,67.77,270.21,30.73,2.37,0.4582,2459533.45,0.0611843176434509,0.0611839899166338,0.0611846453702715,6.747660458792191,6.74120351722311,1
2164216,164216 (2004 OT11),164216,APO,2004-07-27,2020-12-21,385,17.2,0.565,2.152,0.936,19.94,295.1,326.33,215.22,3.37,0.3123,2460064.16,0.172365584245402,0.172362872013264,0.17236829648139,18.6038649598962,18.6030340224678,1
2164217,164217 (2004 PT42),164217,AMO,2000-02-08,2021-09-10,702,17.23,0.4164,2.012,1.174,48.93,144.98,179.07,37.55,2.85,0.3453,2459491.73,0.179613667710008,0.179612947659186,0.179614387781116,25.9128690816007,25.912296599026,1
2164222,164222 (2004 RN9),164222,APO,2001-09-11,2020-02-19,263,20.67,0.247,1.304,0.982,16.11,0.95,67.21,183.29,1.63,0.6618,2459867.53,0.151507584258028,0.151502332782952,0.15151283587977,11.807629397169,11.8061398897758,1
2164294,164294 (2004 XZ130),164294,IEO,2004-12-13,2014-09-16,72,20.4,0.4546,0.6175,0.337,2.95,211.17,5.4,263.35,0.9,2.031,2459648.08,0.0979124646941762,0.0979057060265126,0.0979192237322857,7.0239638516953,7.02008849278636,1
2164342,164342 (2005 CP),164342,APO,2003-01-14,2007-06-14,86,20.8,0.3612,1.57,1.003,19.17,138.94,72.95,187.2,2.14,0.5011,2459945.33,0.194542174141866,0.194517496275071,0.194566865564132,13.7360763125466,13.735079182828,1
2164400,164400 (2005 GN59),164400,APO,1978-08-24,2021-09-22,764,17.34,0.4677,1.657,0.882,6.62,218.96,203.03,67.49,2.43,0.4621,2459454.47,0.055891788217938,0.0558909730622048,0.0558926034236563,9.62973761502394,9.62478583237785,1
2168318,168318 (1989 DA),168318,APO,1989-02-27,2008-04-18,58,18.9,0.5431,2.162,0.988,6.5,349.12,139.82,133.08,3.34,0.3101,2459171.28,0.195790095860733,0.195786526495302,0.195793665226252,14.1391829860676,14.1382204608751,1
2168791,168791 (2000 SQ43),168791,AMO,1979-06-16,2021-11-14,90,18.49,0.5053,2.294,1.135,5.18,170.92,144.73,68.85,3.45,0.2836,2459357.72,0.162129209656229,0.162122265902567,0.162136153411513,6.238782845747809,6.23614807436679,1
2170086,170086 (2002 XR14),170086,APO,2002-12-05,2019-09-25,278,17.9,0.6252,1.906,0.714,2.13,75.67,120.11,55.28,3.1,0.3745,2459452.91,0.170022585988227,0.170019037354773,0.170026134622202,22.0212535566589,22.0205418996687,1
2170502,170502 (2003 WM7),170502,APO,2003-11-18,2019-10-07,543,17.2,0.8805,2.475,0.296,10.43,48.47,143.84,204.14,4.66,0.2531,2460216.39,0.116835124993188,0.116827599956786,0.116842650368569,29.0736172164035,29.0728328017106,1
2170903,170903 (2004 WS2),170903,APO,2002-10-28,2021-12-13,477,18.0,0.6031,1.336,0.53,8.26,87.75,115.34,349.99,2.14,0.638,2459616.19,0.12757976719191,0.12753706380822,0.127622471447655,23.2129446730778,23.212044950266,1
2171486,171486 (1996 MO),171486,APO,1996-06-23,2021-11-24,275,18.41,0.5128,1.794,0.874,6.09,165.11,4.74,294.53,2.71,0.4102,2459760.09,0.168910992322423,0.168909472350845,0.168912512296997,15.7382820419812,15.7372797114729,1
2171576,171576 (1999 VP11),171576,APO,1999-11-07,2019-01-21,392,18.6,0.5835,1.086,0.452,17.28,208.09,61.74,320.08,1.72,0.8712,2459646.33,0.11810563466743,0.11809644061304,0.118114828723028,24.1710654793337,24.1701321082771,1
2171839,171839 (2001 JM1),171839,APO,2001-05-12,2021-11-30,561,19.02,0.3111,1.461,1.006,17.07,226.66,321.92,280.68,1.92,0.5582,2459742.59,0.065104528488229,0.0651040734565913,0.0651049835217023,10.0513504839278,10.0472779497926,1
2172034,172034 (2001 WR1),172034,AMO,1953-02-14,2021-05-21,783,17.76,0.2025,1.277,1.019,25.03,6.51,48.54,339.99,1.54,0.6828,2459629.81,0.172696028395297,0.172694447635399,0.172697609172491,13.0543769225935,13.0531949877941,1
2172678,172678 (2003 YM137),172678,APO,2003-12-21,2007-12-16,336,18.7,0.6902,2.595,0.804,2.7,76.92,127.33,90.84,4.39,0.2358,2459215.28,0.077463190986824,0.0771630298670044,0.077763519263837,15.1738717623585,15.1716047545935,1
2172722,172722 (2004 BV102),172722,APO,2004-01-31,2020-04-02,469,17.53,0.6995,1.544,0.464,7.22,341.31,17.19,160.31,2.62,0.5138,2459288.51,0.164984731831949,0.164955078127255,0.165014393194529,19.6869712045425,19.6861508553705,1
2173561,173561 (2000 YV137),173561,APO,2000-12-01,2021-12-03,642,18.32,0.311,1.448,0.998,28.0,137.24,211.36,124.68,1.9,0.5656,2459380.07,0.117412024539916,0.117410333500792,0.1174137155792,17.1149132652815,17.1135872702352,1
2173664,173664 (2001 JU2),173664,AMO,2001-05-15,2021-01-18,263,19.68,0.2689,1.517,1.109,4.02,100.75,227.34,318.47,1.93,0.5273,2459679.27,0.110104925891792,0.110104625248135,0.110105226539548,2.92627103976109,2.91798959655867,1
2174050,174050 (2002 CC19),174050,AMO,1986-02-07,2021-09-11,759,17.61,0.1134,1.285,1.139,50.06,134.75,20.18,221.58,1.43,0.6768,2459805.02,0.174063894777716,0.174063329385829,0.174064460180873,25.3643738523298,25.3637703420375,1
2175114,175114 (2004 QQ),175114,APO,1997-12-28,2021-12-27,569,16.55,0.6639,2.249,0.756,5.72,288.12,31.44,70.06,3.74,0.2923,2459360.78,0.17953236524499,0.179530000184422,0.179534730317315,21.7390076462292,21.7383249355308,1
